{"type": "FeatureCollection", "features": [ {"type": "Feature", "properties": {"norad_id": 66593, "name": "STARLINK-36031", "group": "last-30-days", "lat": -36.53975469811666, "lon": 111.88844425254088, "alt_km": 346.46405195808256, "timestamp": "2025-12-04T21:36:14.653293+00:00", "meta": {"OBJECT_NAME": "STARLINK-36031", "OBJECT_ID": "2025-270F", "EPOCH": "2025-12-04T16:01:12.652320", "MEAN_MOTION": 15.7491846, "ECCENTRICITY": 0.00066028, "INCLINATION": 42.9978, "RA_OF_ASC_NODE": 240.6163, "ARG_OF_PERICENTER": 319.9037, "MEAN_ANOMALY": 40.1344, "EPHEMERIS_TYPE": 0, "CLASSIFICATION_TYPE": "U", "NORAD_CAT_ID": 66593, "ELEMENT_SET_NO": 999, "REV_AT_EPOCH": 308, "BSTAR": 0.0034719624, "MEAN_MOTION_DOT": 0.00567567, "MEAN_MOTION_DDOT": 0}, "tle": {"line1": "1 66593U 25270F   25338.66750755  .00567567  00000+0  34720-2 0  9990", "line2": "2 66593  42.9978 240.6163 0006602 319.9037  40.1344 15.74918460  3080"}}, "geometry": {"type": "Point", "coordinates": [111.88844425254088, -36.53975469811666]}}, {"type": "Feature", "properties": {"norad_id": 66594, "name": "STARLINK-36032", "group": "last-30-days", "lat": -42.595173009543416, "lon": 139.80355240355294, "alt_km": 330.63395110392867, "timestamp": "2025-12-04T21:36:14.653303+00:00", "meta": {"OBJECT_NAME": "STARLINK-36032", "OBJECT_ID": "2025-270G", "EPOCH": "2025-12-04T03:46:47.463456", "MEAN_MOTION": 15.77380004, "ECCENTRICITY": 0.00146576, "INCLINATION": 42.9975, "RA_OF_ASC_NODE": 243.6707, "ARG_OF_PERICENTER": 280.4782, "MEAN_ANOMALY": 79.4436, "EPHEMERIS_TYPE": 0, "CLASSIFICATION_TYPE": "U", "NORAD_CAT_ID": 66594, "ELEMENT_SET_NO": 999, "REV_AT_EPOCH": 281, "BSTAR": 0.0022053405, "MEAN_MOTION_DOT": 0.00395318, "MEAN_MOTION_DDOT": 0}, "tle": {"line1": "1 66594U 25270G   25338.15749379  .00395318  00000+0  22053-2 0  9994", "line2": "2 66594  42.9975 243.6707 0014657 280.4782  79.4436 15.77380004  2810"}}, "geometry": {"type": "Point", "coordinates": [139.80355240355294, -42.595173009543416]}}, {"type": "Feature", "properties": {"norad_id": 66595, "name": "STARLINK-35711", "group": "last-30-days", "lat": -37.4195272221415, "lon": 114.39310525557138, "alt_km": 344.97642472392727, "timestamp": "2025-12-04T21:36:14.653313+00:00", "meta": {"OBJECT_NAME": "STARLINK-35711", "OBJECT_ID": "2025-270H", "EPOCH": "2025-12-04T14:29:25.270944", "MEAN_MOTION": 15.75147228, "ECCENTRICITY": 0.00026087, "INCLINATION": 42.9983, "RA_OF_ASC_NODE": 240.9958, "ARG_OF_PERICENTER": 243.466, "MEAN_ANOMALY": 116.5941, "EPHEMERIS_TYPE": 0, "CLASSIFICATION_TYPE": "U", "NORAD_CAT_ID": 66595, "ELEMENT_SET_NO": 999, "REV_AT_EPOCH": 318, "BSTAR": 0.0023185585, "MEAN_MOTION_DOT": 0.00373675, "MEAN_MOTION_DDOT": 0}, "tle": {"line1": "1 66595U 25270H   25338.60376471  .00373675  00000+0  23186-2 0  9994", "line2": "2 66595  42.9983 240.9958 0002608 243.4660 116.5941 15.75147228  3187"}}, "geometry": {"type": "Point", "coordinates": [114.39310525557138, -37.4195272221415]}}, {"type": "Feature", "properties": {"norad_id": 66596, "name": "STARLINK-35811", "group": "last-30-days", "lat": -38.781855242871906, "lon": 118.76488530988401, "alt_km": 345.9554928603666, "timestamp": "2025-12-04T21:36:14.653323+00:00", "meta": {"OBJECT_NAME": "STARLINK-35811", "OBJECT_ID": "2025-270J", "EPOCH": "2025-12-04T15:59:44.301408", "MEAN_MOTION": 15.75427926, "ECCENTRICITY": 0.00046165, "INCLINATION": 42.9987, "RA_OF_ASC_NODE": 240.6055, "ARG_OF_PERICENTER": 284.7362, "MEAN_ANOMALY": 75.2995, "EPHEMERIS_TYPE": 0, "CLASSIFICATION_TYPE": "U", "NORAD_CAT_ID": 66596, "ELEMENT_SET_NO": 999, "REV_AT_EPOCH": 319, "BSTAR": -0.0086061754, "MEAN_MOTION_DOT": -0.01194988, "MEAN_MOTION_DDOT": 0}, "tle": {"line1": "1 66596U 25270J   25338.66648497 -.01194988  00000+0 -86062-2 0  9994", "line2": "2 66596  42.9987 240.6055 0004616 284.7362  75.2995 15.75427926  3192"}}, "geometry": {"type": "Point", "coordinates": [118.76488530988401, -38.781855242871906]}}, {"type": "Feature", "properties": {"norad_id": 66597, "name": "STARLINK-35820", "group": "last-30-days", "lat": -42.96727588762645, "lon": 147.32242282530328, "alt_km": 323.8808081170955, "timestamp": "2025-12-04T21:36:14.653333+00:00", "meta": {"OBJECT_NAME": "STARLINK-35820", "OBJECT_ID": "2025-270K", "EPOCH": "2025-12-04T15:54:56.043360", "MEAN_MOTION": 15.78717724, "ECCENTRICITY": 0.00199747, "INCLINATION": 43.0025, "RA_OF_ASC_NODE": 240.58, "ARG_OF_PERICENTER": 286.3097, "MEAN_ANOMALY": 73.5577, "EPHEMERIS_TYPE": 0, "CLASSIFICATION_TYPE": "U", "NORAD_CAT_ID": 66597, "ELEMENT_SET_NO": 999, "REV_AT_EPOCH": 319, "BSTAR": 0.0039060844, "MEAN_MOTION_DOT": 0.00781523, "MEAN_MOTION_DDOT": 0}, "tle": {"line1": "1 66597U 25270K   25338.66314865  .00781523  00000+0  39061-2 0  9995", "line2": "2 66597  43.0025 240.5800 0019974 286.3097  73.5577 15.78717724  3199"}}, "geometry": {"type": "Point", "coordinates": [147.32242282530328, -42.96727588762645]}}, {"type": "Feature", "properties": {"norad_id": 66598, "name": "STARLINK-35981", "group": "last-30-days", "lat": -40.54975910161463, "lon": 125.83699274295213, "alt_km": 346.2388914386456, "timestamp": "2025-12-04T21:36:14.653343+00:00", "meta": {"OBJECT_NAME": "STARLINK-35981", "OBJECT_ID": "2025-270L", "EPOCH": "2025-12-04T15:58:16.579488", "MEAN_MOTION": 15.7542585, "ECCENTRICITY": 0.00054005, "INCLINATION": 42.9991, "RA_OF_ASC_NODE": 240.597, "ARG_OF_PERICENTER": 302.4449, "MEAN_ANOMALY": 57.5898, "EPHEMERIS_TYPE": 0, "CLASSIFICATION_TYPE": "U", "NORAD_CAT_ID": 66598, "ELEMENT_SET_NO": 999, "REV_AT_EPOCH": 292, "BSTAR": -0.0087257872, "MEAN_MOTION_DOT": -0.01210213, "MEAN_MOTION_DDOT": 0}, "tle": {"line1": "1 66598U 25270L   25338.66546967 -.01210213  00000+0 -87258-2 0  9993", "line2": "2 66598  42.9991 240.5970 0005400 302.4449  57.5898 15.75425850  2929"}}, "geometry": {"type": "Point", "coordinates": [125.83699274295213, -40.54975910161463]}}, {"type": "Feature", "properties": {"norad_id": 66599, "name": "STARLINK-35930", "group": "last-30-days", "lat": -39.792673570879636, "lon": 122.55106217705217, "alt_km": 348.50469235922264, "timestamp": "2025-12-04T21:36:14.653357+00:00", "meta": {"OBJECT_NAME": "STARLINK-35930", "OBJECT_ID": "2025-270M", "EPOCH": "2025-12-04T00:45:37.693728", "MEAN_MOTION": 15.75348253, "ECCENTRICITY": 0.00019861, "INCLINATION": 42.9984, "RA_OF_ASC_NODE": 244.4479, "ARG_OF_PERICENTER": 267.8069, "MEAN_ANOMALY": 92.2573, "EPHEMERIS_TYPE": 0, "CLASSIFICATION_TYPE": "U", "NORAD_CAT_ID": 66599, "ELEMENT_SET_NO": 999, "REV_AT_EPOCH": 298, "BSTAR": -0.0039524111, "MEAN_MOTION_DOT": -0.00575796, "MEAN_MOTION_DDOT": 0}, "tle": {"line1": "1 66599U 25270M   25338.03168627 -.00575796  00000+0 -39524-2 0  9990", "line2": "2 66599  42.9984 244.4479 0001986 267.8069  92.2573 15.75348253  2989"}}, "geometry": {"type": "Point", "coordinates": [122.55106217705217, -39.792673570879636]}}, {"type": "Feature", "properties": {"norad_id": 66600, "name": "STARLINK-35980", "group": "last-30-days", "lat": -42.97906717189568, "lon": 149.3256618521128, "alt_km": 326.09224391871703, "timestamp": "2025-12-04T21:36:14.653369+00:00", "meta": {"OBJECT_NAME": "STARLINK-35980", "OBJECT_ID": "2025-270N", "EPOCH": "2025-12-04T03:46:22.938816", "MEAN_MOTION": 15.79349544, "ECCENTRICITY": 0.00188251, "INCLINATION": 43.0002, "RA_OF_ASC_NODE": 243.6684, "ARG_OF_PERICENTER": 318.1688, "MEAN_ANOMALY": 41.7743, "EPHEMERIS_TYPE": 0, "CLASSIFICATION_TYPE": "U", "NORAD_CAT_ID": 66600, "ELEMENT_SET_NO": 999, "REV_AT_EPOCH": 290, "BSTAR": 0.0025460562, "MEAN_MOTION_DOT": 0.00507436, "MEAN_MOTION_DDOT": 0}, "tle": {"line1": "1 66600U 25270N   25338.15720994  .00507436  00000+0  25461-2 0  9996", "line2": "2 66600  43.0002 243.6684 0018825 318.1688  41.7743 15.79349544  2909"}}, "geometry": {"type": "Point", "coordinates": [149.3256618521128, -42.97906717189568]}}, {"type": "Feature", "properties": {"norad_id": 66601, "name": "STARLINK-35978", "group": "last-30-days", "lat": -41.061504801749706, "lon": 128.39226299155067, "alt_km": 344.5733083551595, "timestamp": "2025-12-04T21:36:14.653379+00:00", "meta": {"OBJECT_NAME": "STARLINK-35978", "OBJECT_ID": "2025-270P", "EPOCH": "2025-12-04T02:15:56.284416", "MEAN_MOTION": 15.75298164, "ECCENTRICITY": 0.00071106, "INCLINATION": 42.9977, "RA_OF_ASC_NODE": 244.0577, "ARG_OF_PERICENTER": 214.9985, "MEAN_ANOMALY": 145.0417, "EPHEMERIS_TYPE": 0, "CLASSIFICATION_TYPE": "U", "NORAD_CAT_ID": 66601, "ELEMENT_SET_NO": 999, "REV_AT_EPOCH": 283, "BSTAR": -0.0021837609, "MEAN_MOTION_DOT": -0.00327668, "MEAN_MOTION_DDOT": 0}, "tle": {"line1": "1 66601U 25270P   25338.09440144 -.00327668  00000+0 -21838-2 0  9999", "line2": "2 66601  42.9977 244.0577 0007110 214.9985 145.0417 15.75298164  2838"}}, "geometry": {"type": "Point", "coordinates": [128.39226299155067, -41.061504801749706]}}, {"type": "Feature", "properties": {"norad_id": 66602, "name": "STARLINK-36050", "group": "last-30-days", "lat": -30.879104044253385, "lon": -160.88177913552246, "alt_km": 259.542840834516, "timestamp": "2025-12-04T21:36:14.653389+00:00", "meta": {"OBJECT_NAME": "STARLINK-36050", "OBJECT_ID": "2025-270Q", "EPOCH": "2025-12-03T23:11:57.245856", "MEAN_MOTION": 15.81066635, "ECCENTRICITY": 0.00264193, "INCLINATION": 42.9973, "RA_OF_ASC_NODE": 244.8203, "ARG_OF_PERICENTER": 271.6989, "MEAN_ANOMALY": 88.0856, "EPHEMERIS_TYPE": 0, "CLASSIFICATION_TYPE": "U", "NORAD_CAT_ID": 66602, "ELEMENT_SET_NO": 999, "REV_AT_EPOCH": 287, "BSTAR": 0.03628424, "MEAN_MOTION_DOT": 0.09497794, "MEAN_MOTION_DDOT": 0}, "tle": {"line1": "1 66602U 25270Q   25337.96663479  .09497794  00000+0  36284-1 0  9998", "line2": "2 66602  42.9973 244.8203 0026419 271.6989  88.0856 15.81066635  2876"}}, "geometry": {"type": "Point", "coordinates": [-160.88177913552246, -30.879104044253385]}}]}